{
    "links": {
        "self": "http://www.neowsapp.com/rest/v1/neo/3843637?api_key=iIulBulltgU6a56xZRHN4H3l9WmuAYTsLGpBGhQ2"
    },
    "id": "3843637",
    "neo_reference_id": "3843637",
    "name": "(2019 QD4)",
    "designation": "2019 QD4",
    "nasa_jpl_url": "http://ssd.jpl.nasa.gov/sbdb.cgi?sstr=3843637",
    "absolute_magnitude_h": 26.0,
    "estimated_diameter": {
        "kilometers": {
            "estimated_diameter_min": 0.0167708462,
            "estimated_diameter_max": 0.0375007522
        },
        "meters": {
            "estimated_diameter_min": 16.7708462163,
            "estimated_diameter_max": 37.5007521798
        },
        "miles": {
            "estimated_diameter_min": 0.0104209175,
            "estimated_diameter_max": 0.0233018799
        },
        "feet": {
            "estimated_diameter_min": 55.0224631002,
            "estimated_diameter_max": 123.0339677816
        }
    },
    "is_potentially_hazardous_asteroid": false,
    "close_approach_data": [
        {
            "close_approach_date": "2019-08-31",
            "close_approach_date_full": "2019-Aug-31 21:53",
            "epoch_date_close_approach": 1567288380000,
            "relative_velocity": {
                "kilometers_per_second": "22.4911440664",
                "kilometers_per_hour": "80968.1186389507",
                "miles_per_hour": "50310.4401620747"
            },
            "miss_distance": {
                "astronomical": "0.0151076331",
                "lunar": "5.8768692759",
                "kilometers": "2260069.732501497",
                "miles": "1404342.2115627786"
            },
            "orbiting_body": "Earth"
        },
        {
            "close_approach_date": "2143-08-18",
            "close_approach_date_full": "2143-Aug-18 17:44",
            "epoch_date_close_approach": 5479206240000,
            "relative_velocity": {
                "kilometers_per_second": "30.9231902893",
                "kilometers_per_hour": "111323.4850415567",
                "miles_per_hour": "69172.0843581828"
            },
            "miss_distance": {
                "astronomical": "0.3429434957",
                "lunar": "133.4050198273",
                "kilometers": "51303616.487074159",
                "miles": "31878589.0552510342"
            },
            "orbiting_body": "Earth"
        }
    ],
    "orbital_data": {
        "orbit_id": "2",
        "orbit_determination_date": "2019-09-04 06:12:58",
        "first_observation_date": "2019-08-28",
        "last_observation_date": "2019-08-30",
        "data_arc_in_days": 2,
        "observations_used": 19,
        "orbit_uncertainty": "9",
        "minimum_orbit_intersection": ".0110121",
        "jupiter_tisserand_invariant": "4.763",
        "epoch_osculation": "2458724.5",
        "eccentricity": ".5612122857243622",
        "semi_major_axis": "1.286558029907084",
        "inclination": "29.15915299673089",
        "ascending_node_longitude": "157.4710956961158",
        "orbital_period": "533.0187622866439",
        "perihelion_distance": ".5645258572258972",
        "perihelion_argument": "284.6802627794638",
        "aphelion_distance": "2.008590202588272",
        "perihelion_time": "2458783.757164795924",
        "mean_anomaly": "319.9778078448568",
        "mean_motion": ".6753983639442718",
        "equinox": "J2000",
        "orbit_class": {
            "orbit_class_type": "APO",
            "orbit_class_description": "Near-Earth asteroid orbits which cross the Earth’s orbit similar to that of 1862 Apollo",
            "orbit_class_range": "a (semi-major axis) > 1.0 AU; q (perihelion) < 1.017 AU"
        }
    },
    "is_sentry_object": false
}